{
  "norad_id": 65116,
  "name": "QPS-SAR-12 (KUSHINADA-I)",
  "history": [
    {
      "epoch": "2026-05-04T18:37:50.624832Z",
      "apogee_km": 571.117252902015,
      "perigee_km": 559.6895740894852,
      "latitude_deg": -5.087848949562186e-05,
      "longitude_deg": 112.85084479189265,
      "height_km": 563.3880847731183,
      "semi_major_axis_km": 6943.54041349575,
      "eccentricity": 0.0008229,
      "inclination_deg": 42.0116,
      "raan_deg": 254.9726,
      "arg_perigee_deg": 287.1892,
      "mean_anomaly_deg": 72.8032,
      "mean_motion_rev_day": 15.00483799
    },
    {
      "epoch": "2026-05-05T18:35:38.393088Z",
      "apogee_km": 571.0341564119362,
      "perigee_km": 559.6995806969071,
      "latitude_deg": -4.255833332065084e-06,
      "longitude_deg": 106.92252159417987,
      "height_km": 562.8335741142079,
      "semi_major_axis_km": 6943.503868554421,
      "eccentricity": 0.0008162,
      "inclination_deg": 42.0115,
      "raan_deg": 249.4774,
      "arg_perigee_deg": 292.9151,
      "mean_anomaly_deg": 67.0813,
      "mean_motion_rev_day": 15.00495645
    },
    {
      "epoch": "2026-05-06T16:57:34.471008Z",
      "apogee_km": 570.9792345776577,
      "perigee_km": 559.70163852521,
      "latitude_deg": -9.152962486520471e-06,
      "longitude_deg": 125.39143300590477,
      "height_km": 562.363003796952,
      "semi_major_axis_km": 6943.477436551433,
      "eccentricity": 0.0008121,
      "inclination_deg": 42.0114,
      "raan_deg": 244.3485,
      "arg_perigee_deg": 298.0414,
      "mean_anomaly_deg": 61.959,
      "mean_motion_rev_day": 15.00504213
    },
    {
      "epoch": "2026-05-07T16:55:21.313056Z",
      "apogee_km": 570.894523452931,
      "perigee_km": 559.7433332320115,
      "latitude_deg": -4.465674975122468e-05,
      "longitude_deg": 119.46668912925486,
      "height_km": 561.9007595714423,
      "semi_major_axis_km": 6943.4559283424705,
      "eccentricity": 0.000803,
      "inclination_deg": 42.0112,
      "raan_deg": 238.8531,
      "arg_perigee_deg": 303.6756,
      "mean_anomaly_deg": 56.3303,
      "mean_motion_rev_day": 15.00511185
    },
    {
      "epoch": "2026-05-08T16:53:07.723968Z",
      "apogee_km": 570.810151872749,
      "perigee_km": 559.7825909922394,
      "latitude_deg": 9.223960027572305e-06,
      "longitude_deg": 113.54354581486223,
      "height_km": 561.479733392764,
      "semi_major_axis_km": 6943.433371432494,
      "eccentricity": 0.0007941,
      "inclination_deg": 42.0108,
      "raan_deg": 233.3574,
      "arg_perigee_deg": 309.2693,
      "mean_anomaly_deg": 50.7428,
      "mean_motion_rev_day": 15.00518497
    },
    {
      "epoch": "2026-05-09T15:15:02.690784Z",
      "apogee_km": 570.7304927079813,
      "perigee_km": 559.8293281586002,
      "latitude_deg": -1.3295815610392091e-05,
      "longitude_deg": 132.01658152220273,
      "height_km": 561.1296905977591,
      "semi_major_axis_km": 6943.4169104332905,
      "eccentricity": 0.000785,
      "inclination_deg": 42.0108,
      "raan_deg": 228.228,
      "arg_perigee_deg": 314.5472,
      "mean_anomaly_deg": 45.4712,
      "mean_motion_rev_day": 15.00523833
    }
  ]
}